PERSEUS-M1              
1 40039U 14033AF  26167.09952007  .00001171  00000+0  11082-3 0  9995
2 40039  97.9641 111.2134 0010393 305.5558  54.4692 14.95628080650479
POLYITAN-1              
1 40042U 14033AJ  26167.00807571  .00015782  00000+0  49343-3 0  9999
2 40042  98.0939 193.1575 0008576 144.8894 215.2913 15.33222010653416
TIGRISAT                
1 40043U 14033AK  26166.97050222  .00001868  00000+0  21959-3 0  9991
2 40043  97.7828 317.0096 0050627  79.1294 281.5613 14.85158931645446
AEROCUBE 6A             
1 40045U 14033AM  26166.42054341  .00004928  00000+0  41492-3 0  9993
2 40045  97.7236 333.3875 0039064  24.0890 336.2149 14.98093876646353
AEROCUBE 6B             
1 40046U 14033AN  26167.02514064  .00004320  00000+0  35097-3 0  9994
2 40046  97.7238 333.7735 0038391  13.3701 346.8531 14.99560720646584
CANX-4                  
1 40055U 14034C   26167.13863755  .00000789  00000+0  10851-3 0  9997
2 40055  98.3124  42.4133 0013243  20.3579 339.8157 14.81263101644376
CANX-5                  
1 40056U 14034D   26167.13708296  .00000795  00000+0  10918-3 0  9997
2 40056  98.3125  42.4551 0013252  20.5316 339.6425 14.81280321635181
UKUBE-1                 
1 40074U 14037F   26166.97825777  .00006932  00000+0  39104-3 0  9992
2 40074  98.4228 170.1231 0002574 133.9815 226.1626 15.13537995648374
BRITE-PL2 (HEWELIUSZ)   
1 40119U 14049B   26167.10116653  .00001433  00000+0  13765-3 0  9993
2 40119  97.9097 279.0927 0015246 111.7099 248.5746 14.94590078641284
AEROCUBE 5C             
1 40965U 15058B   26166.62860330  .00002030  00000+0  18717-3 0  9993
2 40965  64.7679 267.4387 0130683  63.8761 297.5728 14.91447915365429
AEROCUBE 7              
1 40966U 15058C   26166.56252549  .00002808  00000+0  23154-3 0  9998
2 40966  64.7627 249.9052 0120418  62.3296 298.9978 14.95717126365711
FOX-1A (AO-85)          
1 40967U 15058D   26166.74276637  .00002067  00000+0  19289-3 0  9994
2 40967  64.7762 283.4725 0130368  57.1508 304.2075 14.90963979113359
SINOD-D 1               
1 40968U 15058E   26167.00864876  .00002642  00000+0  21844-3 0  9992
2 40968  64.7759 262.6033 0118979  53.5359 307.6650 14.95899841116489
SNAP-3 ALICE            
1 40970U 15058G   26167.14800764  .00103948  00000+0  12477-2 0  9998
2 40970  64.7501 107.5228 0028423  13.4261 346.7634 15.59848827116723
LMRST-SAT               
1 40971U 15058H   26167.03316122  .00001837  00000+0  17422-3 0  9997
2 40971  64.7767 278.9055 0132014  59.0663 302.3347 14.90585676113385
SNAP-3 EDDIE            
1 40972U 15058J   26167.13891821  .00114689  00000+0  13094-2 0  9993
2 40972  64.7427  98.2866 0027928  17.4674 342.7426 15.61125477118861
PROPCUBE 3              
1 40973U 15058K   26166.53616005  .00002455  00000+0  21059-3 0  9994
2 40973  64.7688 257.6942 0123954  60.5643 300.7773 14.94250037114555
BISONSAT                
1 40974U 15058L   26167.17571140  .00009332  00000+0  45408-3 0  9991
2 40974  64.7576 176.9150 0078951  47.6901 313.0878 15.16169330115469
SNAP-3 JIMI             
1 40975U 15058M   26166.52497092  .00003739  00000+0  26264-3 0  9997
2 40975  64.7640 225.0320 0106067  56.0418 305.0725 15.02286136113979
PROPCUBE 1 (FLORA)      
1 40976U 15058N   26166.71841724  .00002053  00000+0  20034-3 0  9991
2 40976  64.7756 299.7878 0130672  61.4958 299.9240 14.89216736116049
SINOD-D 3               
1 40977U 15058P   26167.03614661  .00002706  00000+0  23458-3 0  9994
2 40977  64.7737 279.4132 0119218  58.5809 302.6897 14.94010330114587
HORYU-4                 
1 41340U 16012D   26166.43547623  .00392649  54783-4  97992-3 0  9990
2 41340  30.9849  91.8834 0005149 261.3375  98.6703 15.94546005570538
RAVAN                   
1 41849U 16067B   26166.94945359  .00040519  00000+0  61299-3 0  9993
2 41849  97.9889  56.3789 0004609  35.6865 324.4694 15.54576517527505
CELTEE 1                
1 41850U 16067C   26167.15358719  .00004100  00000+0  19583-3 0  9992
2 41850  98.0670  33.6503 0000909 125.3838 234.7480 15.19674343525720
OPTICUBE 04             
1 41851U 16067D   26167.15124484  .00001943  00000+0  12481-3 0  9995
2 41851  98.0695  19.3809 0016845 118.8565 241.4355 15.09654618525018
AEROCUBE 8D             
1 41852U 16067E   26167.17096142  .00006049  00000+0  25016-3 0  9997
2 41852  98.0680  37.2651 0004643 125.6494 234.5174 15.24386276525917
AEROCUBE 8C             
1 41853U 16067F   26167.19611538  .00006006  00000+0  24649-3 0  9996
2 41853  98.0550  34.5211 0006644  71.7801 288.4157 15.24634486525910
CORVUS BC2              
1 42846U 17042X   26166.93268698  .00003653  00000+0  25223-3 0  9993
2 42846  97.4059 328.3309 0014251 114.4663 245.8053 15.06289068486871
CORVUS BC1              
1 42847U 17042Y   26166.99386134  .00003360  00000+0  23129-3 0  9994
2 42847  97.4095 329.2030 0013282  92.8089 267.4659 15.06460079486917
MAKERSAT 0              
1 43016U 17073D   26166.93898979  .00014741  00000+0  40195-3 0  9993
2 43016  97.4626  49.4485 0105138 277.5028  81.4279 15.32063984466270
