OBJECT_NAME,OBJECT_ID,EPOCH,MEAN_MOTION,ECCENTRICITY,INCLINATION,RA_OF_ASC_NODE,ARG_OF_PERICENTER,MEAN_ANOMALY,EPHEMERIS_TYPE,CLASSIFICATION_TYPE,NORAD_CAT_ID,ELEMENT_SET_NO,REV_AT_EPOCH,BSTAR,MEAN_MOTION_DOT,MEAN_MOTION_DDOT
PERSEUS-M1,2014-033AF,2026-06-16T02:23:18.534048,14.95628080,.0010393,97.9641,111.2134,305.5558,54.4692,0,U,40039,999,65047,.11082E-3,.1171E-4,0
POLYITAN-1,2014-033AJ,2026-06-16T00:11:37.741344,15.33222010,.0008576,98.0939,193.1575,144.8894,215.2913,0,U,40042,999,65341,.49343E-3,.15782E-3,0
TIGRISAT,2014-033AK,2026-06-15T23:17:31.391808,14.85158931,.0050627,97.7828,317.0096,79.1294,281.5613,0,U,40043,999,64544,.21959E-3,.1868E-4,0
AEROCUBE 6A,2014-033AM,2026-06-15T10:05:34.950624,14.98093876,.00390644,97.7236,333.3875,24.0890,336.2149,0,U,40045,999,64635,.41491623E-3,.4928E-4,0
AEROCUBE 6B,2014-033AN,2026-06-16T00:36:12.151296,14.99560720,.0038391,97.7238,333.7735,13.3701,346.8531,0,U,40046,999,64658,.35097E-3,.432E-4,0
CANX-4,2014-034C,2026-06-16T03:19:38.284320,14.81263101,.0013243,98.3124,42.4133,20.3579,339.8157,0,U,40055,999,64437,.10851E-3,.789E-5,0
CANX-5,2014-034D,2026-06-16T03:17:23.967744,14.81280321,.0013252,98.3125,42.4551,20.5316,339.6425,0,U,40056,999,63518,.10918E-3,.795E-5,0
UKUBE-1,2014-037F,2026-06-15T23:28:41.471328,15.13537995,.0002574,98.4228,170.1231,133.9815,226.1626,0,U,40074,999,64837,.39104E-3,.6932E-4,0
BRITE-PL2 (HEWELIUSZ),2014-049B,2026-06-16T02:25:40.788192,14.94590078,.0015246,97.9097,279.0927,111.7099,248.5746,0,U,40119,999,64128,.13765E-3,.1433E-4,0
AEROCUBE 5C,2015-058B,2026-06-15T15:05:11.325120,14.91447915,.0130683,64.7679,267.4387,63.8761,297.5728,0,U,40965,999,36542,.1871662E-3,.203E-4,0
AEROCUBE 7,2015-058C,2026-06-15T13:30:02.202336,14.95717126,.0120418,64.7627,249.9052,62.3296,298.9978,0,U,40966,999,36571,.23154258E-3,.2808E-4,0
FOX-1A (AO-85),2015-058D,2026-06-15T17:49:35.014368,14.90963979,.01303689,64.7762,283.4725,57.1508,304.2075,0,U,40967,999,11335,.19289249E-3,.2067E-4,0
SINOD-D 1,2015-058E,2026-06-16T00:12:27.252864,14.95899841,.0118979,64.7759,262.6033,53.5359,307.6650,0,U,40968,999,11648,.21844E-3,.2642E-4,0
SNAP-3 ALICE,2015-058G,2026-06-16T03:33:07.860096,15.59848827,.0028423,64.7501,107.5228,13.4261,346.7634,0,U,40970,999,11672,.12477E-2,.103948E-2,0
LMRST-SAT,2015-058H,2026-06-16T00:47:45.129408,14.90585676,.0132014,64.7767,278.9055,59.0663,302.3347,0,U,40971,999,11338,.17422E-3,.1837E-4,0
SNAP-3 EDDIE,2015-058J,2026-06-16T03:20:02.533344,15.61125477,.0027928,64.7427,98.2866,17.4674,342.7426,0,U,40972,999,11886,.13094E-2,.114689E-2,0
PROPCUBE 3,2015-058K,2026-06-15T12:52:04.228320,14.94250037,.01239545,64.7688,257.6942,60.5643,300.7773,0,U,40973,999,11455,.21059098E-3,.2455E-4,0
BISONSAT,2015-058L,2026-06-16T04:13:01.464960,15.16169330,.0078951,64.7576,176.9150,47.6901,313.0878,0,U,40974,999,11546,.45408E-3,.9332E-4,0
SNAP-3 JIMI,2015-058M,2026-06-15T12:35:57.487488,15.02286136,.01060672,64.7640,225.0320,56.0418,305.0725,0,U,40975,999,11397,.26263862E-3,.3739E-4,0
PROPCUBE 1 (FLORA),2015-058N,2026-06-15T17:14:31.249536,14.89216736,.01306722,64.7756,299.7878,61.4958,299.9240,0,U,40976,999,11604,.20034336E-3,.2053E-4,0
SINOD-D 3,2015-058P,2026-06-16T00:52:03.067104,14.94010330,.0119218,64.7737,279.4132,58.5809,302.6897,0,U,40977,999,11458,.23458E-3,.2706E-4,0
HORYU-4,2016-012D,2026-06-15T10:27:05.146272,15.94546005,.00051492,30.9849,91.8834,261.3375,98.6703,0,U,41340,999,57053,.9799184E-3,.392649E-2,.54782598E-4
RAVAN,2016-067B,2026-06-15T22:47:12.790176,15.54576517,.0004609,97.9889,56.3789,35.6865,324.4694,0,U,41849,999,52750,.61299E-3,.40519E-3,0
CELTEE 1,2016-067C,2026-06-16T03:41:09.933216,15.19674343,.0000909,98.0670,33.6503,125.3838,234.7480,0,U,41850,999,52572,.19583E-3,.41E-4,0
OPTICUBE 04,2016-067D,2026-06-16T03:37:47.554176,15.09654618,.0016845,98.0695,19.3809,118.8565,241.4355,0,U,41851,999,52501,.12481E-3,.1943E-4,0
AEROCUBE 8D,2016-067E,2026-06-16T04:06:11.066688,15.24386276,.0004643,98.0680,37.2651,125.6494,234.5174,0,U,41852,999,52591,.25016E-3,.6049E-4,0
AEROCUBE 8C,2016-067F,2026-06-16T04:42:24.368832,15.24634486,.0006644,98.0550,34.5211,71.7801,288.4157,0,U,41853,999,52591,.24649E-3,.6006E-4,0
CORVUS BC2,2017-042X,2026-06-15T22:23:04.155072,15.06289068,.0014251,97.4059,328.3309,114.4663,245.8053,0,U,42846,999,48687,.25223E-3,.3653E-4,0
CORVUS BC1,2017-042Y,2026-06-15T23:51:09.619776,15.06460079,.0013282,97.4095,329.2030,92.8089,267.4659,0,U,42847,999,48691,.23129E-3,.336E-4,0
MAKERSAT 0,2017-073D,2026-06-15T22:32:08.717856,15.32063984,.0105138,97.4626,49.4485,277.5028,81.4279,0,U,43016,999,46627,.40195E-3,.14741E-3,0
